TEVEL2-4                
1 63213U 25052D   26068.69417973  .00020990  00000+0  70363-3 0  9998
2 63213  97.4009 325.1237 0004733  95.3468 264.8313 15.30925813 54879
STARLINK-34490          
1 64478U 25133G   26068.44754222  .00068461  00000+0  22967-2 0  9997
2 64478  53.1602 117.7617 0001531  84.3428 275.7747 15.30280782 41153
